{
  "type": "FeatureCollection",
  "features": [
    {
      "type": "Feature",
      "properties": {
        "norad_id": 31695,
        "name": "FENGYUN 1C DEB",
        "group": "fengyun-1c-debris",
        "lat": -81.11683666305059,
        "lon": 177.70220246451865,
        "alt_km": 543.3603007014835,
        "timestamp": "2025-12-07T22:37:43.363674+00:00",
        "meta_object_name": "FENGYUN 1C DEB",
        "meta_object_id": "1999-025CDD",
        "meta_epoch": "2025-12-04T11:55:31.104192",
        "meta_mean_motion": 14.73336399,
        "meta_eccentricity": 0.0175505,
        "meta_inclination": 98.2664,
        "meta_ra_of_asc_node": 62.6542,
        "meta_arg_of_pericenter": 254.8437,
        "meta_mean_anomaly": 103.33,
        "meta_ephemeris_type": 0,
        "meta_classification_type": "U",
        "meta_norad_cat_id": 31695,
        "meta_element_set_no": 999,
        "meta_rev_at_epoch": 65850,
        "meta_bstar": 0.0035829,
        "meta_mean_motion_dot": 0.00029711,
        "meta_mean_motion_ddot": 0,
        "tle_line1": "1 31695U 99025CDD 25338.49688778  .00029711  00000+0  35829-2 0  9995",
        "tle_line2": "2 31695  98.2664  62.6542 0175505 254.8437 103.3300 14.73336399658504"
      },
      "geometry": {
        "type": "Point",
        "coordinates": [
          177.70220246451865,
          -81.11683666305059
        ]
      }
    },
    {
      "type": "Feature",
      "properties": {
        "norad_id": 31714,
        "name": "FENGYUN 1C DEB",
        "group": "fengyun-1c-debris",
        "lat": 67.37041002616239,
        "lon": 83.9077053756524,
        "alt_km": 613.3028228719086,
        "timestamp": "2025-12-07T22:37:43.363684+00:00",
        "meta_object_name": "FENGYUN 1C DEB",
        "meta_object_id": "1999-025CDM",
        "meta_epoch": "2025-12-06T15:44:49.936992",
        "meta_mean_motion": 14.86988713,
        "meta_eccentricity": 0.0021286,
        "meta_inclination": 99.0356,
        "meta_ra_of_asc_node": 240.0045,
        "meta_arg_of_pericenter": 320.9201,
        "meta_mean_anomaly": 105.1905,
        "meta_ephemeris_type": 0,
        "meta_classification_type": "U",
        "meta_norad_cat_id": 31714,
        "meta_element_set_no": 999,
        "meta_rev_at_epoch": 95959,
        "meta_bstar": 0.011089525,
        "meta_mean_motion_dot": 0.0010105,
        "meta_mean_motion_ddot": 0,
        "tle_line1": "1 31714U 99025CDM 25340.65613353  .00101050  00000+0  11090-1 0  9995",
        "tle_line2": "2 31714  99.0356 240.0045 0021286 320.9201 105.1905 14.86988713959594"
      },
      "geometry": {
        "type": "Point",
        "coordinates": [
          83.9077053756524,
          67.37041002616239
        ]
      }
    },
    {
      "type": "Feature",
      "properties": {
        "norad_id": 31715,
        "name": "FENGYUN 1C DEB",
        "group": "fengyun-1c-debris",
        "lat": 56.37607404211318,
        "lon": 155.98961057221177,
        "alt_km": 679.4413011683982,
        "timestamp": "2025-12-07T22:37:43.363695+00:00",
        "meta_object_name": "FENGYUN 1C DEB",
        "meta_object_id": "1999-025CDN",
        "meta_epoch": "2025-11-29T05:58:31.345824",
        "meta_mean_motion": 14.51952144,
        "meta_eccentricity": 0.01873161,
        "meta_inclination": 99.2941,
        "meta_ra_of_asc_node": 160.6278,
        "meta_arg_of_pericenter": 159.6825,
        "meta_mean_anomaly": 201.195,
        "meta_ephemeris_type": 0,
        "meta_classification_type": "U",
        "meta_norad_cat_id": 31715,
        "meta_element_set_no": 999,
        "meta_rev_at_epoch": 61521,
        "meta_bstar": 0.0011034266,
        "meta_mean_motion_dot": 5.542e-05,
        "meta_mean_motion_ddot": 0,
        "tle_line1": "1 31715U 99025CDN 25333.24897391  .00005542  00000+0  11034-2 0  9997",
        "tle_line2": "2 31715  99.2941 160.6278 0187316 159.6825 201.1950 14.51952144615214"
      },
      "geometry": {
        "type": "Point",
        "coordinates": [
          155.98961057221177,
          56.37607404211318
        ]
      }
    },
    {
      "type": "Feature",
      "properties": {
        "norad_id": 31716,
        "name": "FENGYUN 1C DEB",
        "group": "fengyun-1c-debris",
        "lat": 57.83955988289113,
        "lon": 75.05367337458286,
        "alt_km": 785.6841650116039,
        "timestamp": "2025-12-07T22:37:43.363705+00:00",
        "meta_object_name": "FENGYUN 1C DEB",
        "meta_object_id": "1999-025CDP",
        "meta_epoch": "2025-12-07T05:40:54.642720",
        "meta_mean_motion": 14.03572646,
        "meta_eccentricity": 0.01288797,
        "meta_inclination": 98.5548,
        "meta_ra_of_asc_node": 240.5384,
        "meta_arg_of_pericenter": 107.2819,
        "meta_mean_anomaly": 47.4428,
        "meta_ephemeris_type": 0,
        "meta_classification_type": "U",
        "meta_norad_cat_id": 31716,
        "meta_element_set_no": 999,
        "meta_rev_at_epoch": 94042,
        "meta_bstar": 0.0020269205,
        "meta_mean_motion_dot": 3.384e-05,
        "meta_mean_motion_ddot": 0,
        "tle_line1": "1 31716U 99025CDP 25341.23674355  .00003384  00000+0  20269-2 0  9991",
        "tle_line2": "2 31716  98.5548 240.5384 0128879 107.2819  47.4428 14.03572646940424"
      },
      "geometry": {
        "type": "Point",
        "coordinates": [
          75.05367337458286,
          57.83955988289113
        ]
      }
    },
    {
      "type": "Feature",
      "properties": {
        "norad_id": 31720,
        "name": "FENGYUN 1C DEB",
        "group": "fengyun-1c-debris",
        "lat": 5.40689363367581,
        "lon": 74.19260348141233,
        "alt_km": 600.7510309321169,
        "timestamp": "2025-12-07T22:37:43.363716+00:00",
        "meta_object_name": "FENGYUN 1C DEB",
        "meta_object_id": "1999-025CDT",
        "meta_epoch": "2025-12-06T11:34:46.803360",
        "meta_mean_motion": 14.71723784,
        "meta_eccentricity": 0.00997846,
        "meta_inclination": 99.0473,
        "meta_ra_of_asc_node": 251.706,
        "meta_arg_of_pericenter": 142.8695,
        "meta_mean_anomaly": 217.9466,
        "meta_ephemeris_type": 0,
        "meta_classification_type": "U",
        "meta_norad_cat_id": 31720,
        "meta_element_set_no": 999,
        "meta_rev_at_epoch": 98144,
        "meta_bstar": 0.001372845,
        "meta_mean_motion_dot": 9.204e-05,
        "meta_mean_motion_ddot": 0,
        "tle_line1": "1 31720U 99025CDT 25340.48248615  .00009204  00000+0  13728-2 0  9997",
        "tle_line2": "2 31720  99.0473 251.7060 0099784 142.8695 217.9466 14.71723784981445"
      },
      "geometry": {
        "type": "Point",
        "coordinates": [
          74.19260348141233,
          5.40689363367581
        ]
      }
    },
    {
      "type": "Feature",
      "properties": {
        "norad_id": 31721,
        "name": "FENGYUN 1C DEB",
        "group": "fengyun-1c-debris",
        "lat": 34.92594325586356,
        "lon": 148.36710613162458,
        "alt_km": 833.7876583323241,
        "timestamp": "2025-12-07T22:37:43.363726+00:00",
        "meta_object_name": "FENGYUN 1C DEB",
        "meta_object_id": "1999-025CDU",
        "meta_epoch": "2025-12-06T17:04:50.699424",
        "meta_mean_motion": 13.73769579,
        "meta_eccentricity": 0.03172672,
        "meta_inclination": 99.7805,
        "meta_ra_of_asc_node": 320.1887,
        "meta_arg_of_pericenter": 199.0999,
        "meta_mean_anomaly": 342.4577,
        "meta_ephemeris_type": 0,
        "meta_classification_type": "U",
        "meta_norad_cat_id": 31721,
        "meta_element_set_no": 999,
        "meta_rev_at_epoch": 67303,
        "meta_bstar": 0.00061230157,
        "meta_mean_motion_dot": 7.76e-06,
        "meta_mean_motion_ddot": 0,
        "tle_line1": "1 31721U 99025CDU 25340.71169791  .00000776  00000+0  61230-3 0  9998",
        "tle_line2": "2 31721  99.7805 320.1887 0317267 199.0999 342.4577 13.73769579673033"
      },
      "geometry": {
        "type": "Point",
        "coordinates": [
          148.36710613162458,
          34.92594325586356
        ]
      }
    },
    {
      "type": "Feature",
      "properties": {
        "norad_id": 31724,
        "name": "FENGYUN 1C DEB",
        "group": "fengyun-1c-debris",
        "lat": 70.82536516170661,
        "lon": -168.35900384054818,
        "alt_km": 814.9419465543615,
        "timestamp": "2025-12-07T22:37:43.363748+00:00",
        "meta_object_name": "FENGYUN 1C DEB",
        "meta_object_id": "1999-025CDX",
        "meta_epoch": "2025-12-04T06:16:47.265024",
        "meta_mean_motion": 14.48822962,
        "meta_eccentricity": 0.0152327,
        "meta_inclination": 97.8549,
        "meta_ra_of_asc_node": 344.8228,
        "meta_arg_of_pericenter": 268.5146,
        "meta_mean_anomaly": 89.8595,
        "meta_ephemeris_type": 0,
        "meta_classification_type": "U",
        "meta_norad_cat_id": 31724,
        "meta_element_set_no": 999,
        "meta_rev_at_epoch": 64369,
        "meta_bstar": 0.0052478,
        "meta_mean_motion_dot": 0.00022998,
        "meta_mean_motion_ddot": 0,
        "tle_line1": "1 31724U 99025CDX 25338.26165816  .00022998  00000+0  52478-2 0  9995",
        "tle_line2": "2 31724  97.8549 344.8228 0152327 268.5146  89.8595 14.48822962643692"
      },
      "geometry": {
        "type": "Point",
        "coordinates": [
          -168.35900384054818,
          70.82536516170661
        ]
      }
    }
  ]
}